ASTRA 2C                
1 26853U 01025A   18198.19910441  .00000117  00000-0  00000+0 0  9996
2 26853   1.2481  90.2446 0002417  21.8413 278.2279  1.00272950 62584
INTELSAT 902 (IS-902)   
1 26900U 01039A   18197.93452024  .00000012  00000-0  00000-0 0  9998
2 26900   0.0089  56.7697 0003033  66.2848 210.0742  1.00272294 61717
EUTELSAT 12 WEST B      
1 26927U 01042A   18198.16716292 -.00000120  00000-0  00000+0 0  9997
2 26927   0.0689 335.3630 0005821 129.4764 237.7718  1.00271971 61531
DIRECTV 4S              
1 26985U 01052A   18198.56006318 -.00000133  00000-0  00000+0 0  9991
2 26985   0.0199  82.1933 0002781  19.7016 293.8443  1.00271733 61003
ECHOSTAR 7              
1 27378U 02006A   18198.10071396 -.00000021  00000-0  00000+0 0  9992
2 27378   0.0168  65.9843 0001683  81.5328  64.7843  1.00272747 60068
INTELSAT 904 (IS-904)   
1 27380U 02007A   18198.05584322  .00000116  00000-0  00000+0 0  9992
2 27380   0.0184 123.4940 0002552 349.8553 246.6595  1.00271988 60097
TDRS 9                  
1 27389U 02011A   18198.12132608 -.00000123  00000-0  00000+0 0  9999
2 27389   6.0543  74.5340 0017080 263.9800 348.0344  1.00272106 61435
JCSAT 2A                
1 27399U 02015A   18198.50191177 -.00000274  00000-0  00000+0 0  9999
2 27399   1.3278  90.3285 0005809 176.3092 302.2822  1.00267593 59624
ASTRA 3A                
1 27400U 02015B   18197.49899197 -.00000302  00000-0  00000-0 0  9999
2 27400   4.5633  66.9595 0002657  44.6320 315.3532  1.00271174 59723
INTELSAT 903 (IS-903)   
1 27403U 02016A   18198.47704955 -.00000245  00000-0  00000+0 0  9994
2 27403   0.6944  94.1432 0002784  16.5394 324.7842  1.00270861 59653
NSS-7                   
1 27414U 02019A   18197.46265882 -.00000177  00000-0  00000-0 0  9993
2 27414   2.7161  80.9863 0002500  33.1431 326.6694  1.00271581 59569
DIRECTV 5 (TEMPO 1)     
1 27426U 02023A   18198.48583259 -.00000076  00000-0  00000+0 0  9992
2 27426   0.0155  71.1100 0003284  51.0352 237.8686  1.00271627 59311
INTELSAT 905 (IS-905)   
1 27438U 02027A   18198.17202187 -.00000205  00000-0  00000+0 0  9997
2 27438   0.0147 161.9913 0002446 290.8383 239.5312  1.00270941 58964
EXPRESS-A4              
1 27441U 02029A   18197.93801906 -.00000267  00000-0  00000-0 0  9999
2 27441   6.7107  54.1193 0010156  82.6924 281.0505  1.00274515 58973
GALAXY 3C (G-3C)        
1 27445U 02030A   18197.44669768 -.00000170  00000-0  00000-0 0  9992
2 27445   0.0173 334.5024 0002038 358.7990  26.6706  1.00270701 17586
EUTELSAT 5 WEST A       
1 27460U 02035A   18197.19749166 -.00000062  00000-0  00000-0 0  9997
2 27460   0.0386  35.6156 0005361  72.4736 251.9522  1.00271741 58628
N-STAR C                
1 27461U 02035B   18198.00789500 -.00000333  00000-0  00000+0 0  9995
2 27461   5.3538  62.6636 0004514  18.7595 352.1808  1.00268729 58661
EUTELSAT 36 WEST A      
1 27508U 02040A   18197.01915339  .00000035  00000-0  00000+0 0  9992
2 27508   0.1196  66.3452 0002372  76.4980 217.1565  1.00269211 58243
METEOSAT-8 (MSG-1)      
1 27509U 02040B   18197.22646514  .00000119  00000-0  00000+0 0  9995
2 27509   5.5149  56.8811 0000511 247.3626 112.6429  1.00267264 58247
INTELSAT 906 (IS-906)   
1 27513U 02041A   18198.13717854 -.00000005  00000-0  00000+0 0  9993
2 27513   0.0156 232.6697 0002913 254.1480 281.6234  1.00271885 57972
KALPANA-1 (METSAT 1)    
1 27525U 02043A   18190.14304142 -.00000091  00000-0  00000+0 0  9998
2 27525   6.9762  52.8402 0011092 248.3310 111.5154  1.00276312 57965
HISPASAT 1D             
1 27528U 02044A   18197.90303748 -.00000236  00000-0  00000+0 0  9995
2 27528   0.0462 307.5182 0002699 156.8080 125.4275  1.00271928 57949
TDRS 10                 
1 27566U 02055A   18197.82350673  .00000056  00000-0  00000+0 0  9998
2 27566   5.7060  56.7065 0005742 263.6835  96.2677  1.00269073 57227
NSS-6                   
1 27603U 02057A   18198.50234794 -.00000290  00000-0  00000+0 0  9994
2 27603   0.0183  57.4880 0000733  50.1027 103.5329  1.00272939 57099
NIMIQ 2                 
1 27632U 02062A   18197.48286099 -.00000228  00000-0  00000+0 0  9994
2 27632   2.8219  80.2676 0002082 320.1399  39.6570  1.00269919 56875
INTELSAT 907 (IS-907)   
1 27683U 03007A   18198.25693035 -.00000222  00000-0  00000+0 0  9992
2 27683   0.0195 127.9029 0002420 344.1192 247.9854  1.00271323 56396
GALAXY 12 (G-12)        
1 27715U 03013B   18198.09870753  .00000039  00000-0  00000+0 0  9996
2 27715   0.0430 271.3519 0001763 227.6347  62.4009  1.00271741 56002
ASIASAT 4               
1 27718U 03014A   18197.48587608  .00000134  00000-0  00000+0 0  9992
2 27718   0.0129  66.4246 0000194 283.9488 157.0060  1.00271291 55915
HELLAS-SAT 2            
1 27811U 03020A   18198.18938292  .00000132  00000-0  00000+0 0  9998
2 27811   0.3127 105.8635 0004940  72.2712 223.9676  1.00270041 55347
THURAYA-2               
1 27825U 03026A   18198.14285428  .00000109  00000-0  00000+0 0  9995
2 27825   5.2621  30.6158 0004676  83.3830 276.3355  1.00269643 55342
OPTUS C1                
1 27831U 03028B   18197.59429510 -.00000167  00000-0  00000-0 0  9990
2 27831   0.0510 148.1567 0003755 340.3103 175.8489  1.00271731 24050
ECHOSTAR 12 (RAINBOW 1) 
1 27852U 03033A   18197.89178455 -.00000219  00000-0  00000-0 0  9999
2 27852   0.0189 321.9760 0001416 124.6049  82.6958  1.00273550 54965
GALAXY 23 (G-23)        
1 27854U 03034A   18197.74121545 -.00000007  00000-0  00000-0 0  9999
2 27854   0.0158  70.5723 0002992  46.0710 323.7060  1.00272191 54739
GALAXY 13 (HORIZONS-1)  
1 27954U 03044A   18198.09905646  .00000028  00000-0  00000+0 0  9993
2 27954   0.0068  53.8188 0001907 341.9505 167.7310  1.00272147 54165
YAMAL 202               
1 28089U 03053A   18197.94424424  .00000100  00000-0  00000-0 0  9998
2 28089   0.0438  86.3129 0003040 359.3440 237.9486  1.00272334 53670
EXPRESS-AM22 (SESAT 2)  
1 28134U 03060A   18198.14040628 -.00000158  00000-0  00000+0 0  9993
2 28134   1.2944  89.9509 0000215 249.3630  86.2372  1.00274580 53277
AMC-10 (GE-10)          
1 28154U 04003A   18198.13401090  .00000068  00000-0  00000+0 0  9995
2 28154   0.0563 276.8645 0002585 181.7791 109.4918  1.00272445 52934
ABS-4 (MOBISAT-1)       
1 28184U 04007A   18198.42374841  .00000021  00000-0  00000+0 0  9996
2 28184   0.0271  76.4562 0002079  43.5833  28.6963  1.00273366 52581
EUTELSAT 7A             
1 28187U 04008A   18197.62327257  .00000028  00000-0  00000+0 0  9997
2 28187   0.0684  34.7326 0004691  95.2807  35.7261  1.00272522 52576
DIRECTV 7S              
1 28238U 04016A   18198.10062670 -.00000019  00000-0  00000+0 0  9993
2 28238   0.0177  66.9607 0002808  47.1629  97.8928  1.00272281 52060
AMC-11 (GE-11)          
1 28252U 04017A   18197.73929626  .00000049  00000-0  00000+0 0  9993
2 28252   0.0279 323.2564 0002656 147.5419 318.8495  1.00270472 51708
INTELSAT 10-02          
1 28358U 04022A   18198.16230101 -.00000031  00000-0  00000+0 0  9999
2 28358   0.0121 111.1634 0000648 255.4456 345.7597  1.00271041 51628
APSTAR 5 (TELSTAR 18)   
1 28364U 04024A   18198.43868807 -.00000314  00000-0  00000+0 0  9992
2 28364   0.0284  89.8614 0002538  38.3673 102.9314  1.00267883 51554
ANIK F2                 
1 28378U 04027A   18197.61097184 -.00000069  00000-0  00000+0 0  9998
2 28378   0.0135  59.4246 0000248 264.3639  79.4527  1.00271600 51351
AMC-15                  
1 28446U 04041A   18198.55776983 -.00000109  00000-0  00000+0 0  9990
2 28446   0.0161   3.7276 0002544 106.8809 280.4532  1.00271727 50383
AMC-16                  
1 28472U 04048A   18198.15049569 -.00000226  00000-0  00000+0 0  9995
2 28472   0.0368 300.5401 0002408 162.2332 161.3060  1.00272349 49815
NSS-10 (AMC-12)         
1 28526U 05003A   18197.90155447 -.00000270  00000-0  00000-0 0  9992
2 28526   0.0348 297.1421 0002620 163.2447 121.3770  1.00272274 24162
XTAR-EUR                
1 28542U 05005A   18198.10042829  .00000131  00000-0  00000+0 0  9998
2 28542   0.0165  53.1072 0001751  37.5946 269.3002  1.00271740 49187
XM-3 (RHYTHM)           
1 28626U 05008A   18198.25102134 -.00000225  00000-0  00000+0 0  9991
2 28626   0.0117 197.1070 0000368  29.7061  73.4606  1.00270126 49066
INMARSAT 4-F1           
1 28628U 05009A   18197.83247071 -.00000281  00000-0  00000+0 0  9999
2 28628   2.9258  17.5484 0002697  94.5527 265.6886  1.00272420 48673
APSTAR 6                
1 28638U 05012A   18198.53729755 -.00000339  00000-0  00000+0 0  9990
2 28638   0.1070  95.5417 0002158  29.8913 137.0875  1.00271482 73417
SPACEWAY 1              
1 28644U 05015A   18197.32060628 -.00000122  00000-0  00000+0 0  9993
2 28644   0.0135 204.0478 0000234 271.7238 190.8377  1.00269033 48505
DIRECTV 8               
1 28659U 05019A   18198.46015077 -.00000135  00000-0  00000+0 0  9991
2 28659   0.0181  24.0824 0002858  88.8017 247.1462  1.00270212 48190
GALAXY 28 (G-28)        
1 28702U 05022A   18198.46562163 -.00000205  00000-0  00000+0 0  9995
2 28702   0.0201  52.0284 0000410 160.5577 161.2493  1.00267990 47833
EXPRESS-AM3             
1 28707U 05023A   18198.08035352 -.00000342  00000-0  00000+0 0  9996
2 28707   0.2427  94.2351 0001088 328.2683   4.2723  1.00270575 47842
THAICOM 4               
1 28786U 05028A   18197.57549359 -.00000383  00000-0  00000-0 0  9994
2 28786   0.0155  36.6951 0002015  74.1365 150.1690  1.00271938 23275
GALAXY 14 (G-14)        
1 28790U 05030A   18198.09949264  .00000017  00000-0  00000+0 0  9991
2 28790   0.0148  71.4715 0002271  40.3182  93.8791  1.00271600 47304
ANIK F1R                
1 28868U 05036A   18198.49643885 -.00000094  00000-0  00000+0 0  9993
2 28868   0.0275  67.3967 0002392  13.5800 285.6685  1.00271096 47163
GALAXY 15 (G-15)        
1 28884U 05041A   18198.09792240  .00000059  00000-0  00000+0 0  9993
2 28884   0.0131 317.6192 0001920 156.9371  82.5587  1.00272790 46621
